[{"OBJECT_NAME":"YAM-7","OBJECT_ID":"2024-149AN","EPOCH":"2026-03-09T17:13:55.117920","MEAN_MOTION":15.30304554,"ECCENTRICITY":0.00019733,"INCLINATION":97.3828,"RA_OF_ASC_NODE":149.4631,"ARG_OF_PERICENTER":296.5121,"MEAN_ANOMALY":63.5918,"EPHEMERIS_TYPE":0,"CLASSIFICATION_TYPE":"U","NORAD_CAT_ID":60504,"ELEMENT_SET_NO":999,"REV_AT_EPOCH":8683,"BSTAR":0.00030984439,"MEAN_MOTION_DOT":9.009e-5,"MEAN_MOTION_DDOT":0},{"OBJECT_NAME":"STARLINK-33534","OBJECT_ID":"2025-071G","EPOCH":"2026-03-09T11:01:56.516160","MEAN_MOTION":15.30191318,"ECCENTRICITY":0.00012708,"INCLINATION":53.1591,"RA_OF_ASC_NODE":141.0654,"ARG_OF_PERICENTER":89.8748,"MEAN_ANOMALY":270.2398,"EPHEMERIS_TYPE":0,"CLASSIFICATION_TYPE":"U","NORAD_CAT_ID":63499,"ELEMENT_SET_NO":999,"REV_AT_EPOCH":5271,"BSTAR":0.00054806534,"MEAN_MOTION_DOT":0.00015903,"MEAN_MOTION_DDOT":0}]
